{"type": "FeatureCollection", "features": [ {"type": "Feature", "properties": {"norad_id": 41335, "name": "SENTINEL-3A", "group": "resource", "lat": -2.457316065032754, "lon": -125.61195009037775, "alt_km": 805.9591606301847, "timestamp": "2025-12-15T19:00:45.003595+00:00", "meta": {"OBJECT_NAME": "SENTINEL-3A", "OBJECT_ID": "2016-011A", "EPOCH": "2025-12-14T21:57:46.979712", "MEAN_MOTION": 14.26731499, "ECCENTRICITY": 9.384e-05, "INCLINATION": 98.6313, "RA_OF_ASC_NODE": 53.8967, "ARG_OF_PERICENTER": 91.3459, "MEAN_ANOMALY": 268.7829, "EPHEMERIS_TYPE": 0, "CLASSIFICATION_TYPE": "U", "NORAD_CAT_ID": 41335, "ELEMENT_SET_NO": 999, "REV_AT_EPOCH": 51178, "BSTAR": 7.8539341e-05, "MEAN_MOTION_DOT": 1.46e-06, "MEAN_MOTION_DDOT": 0}, "tle": {"line1": "1 41335U 16011A   25348.91512708  .00000146  00000+0  78539-4 0  9996", "line2": "2 41335  98.6313  53.8967 0000938  91.3459 268.7829 14.26731499511787"}}, "geometry": {"type": "Point", "coordinates": [-125.61195009037775, -2.457316065032754]}}, {"type": "Feature", "properties": {"norad_id": 41556, "name": "ZIYUAN 3-2 (ZY 3-2)", "group": "resource", "lat": -72.41582082851572, "lon": -140.317536237073, "alt_km": 500.16981421718174, "timestamp": "2025-12-15T19:00:45.003605+00:00", "meta": {"OBJECT_NAME": "ZIYUAN 3-2 (ZY 3-2)", "OBJECT_ID": "2016-033A", "EPOCH": "2025-12-14T22:57:32.122656", "MEAN_MOTION": 15.21538898, "ECCENTRICITY": 0.0012606, "INCLINATION": 97.4045, "RA_OF_ASC_NODE": 63.0877, "ARG_OF_PERICENTER": 240.4707, "MEAN_ANOMALY": 119.5273, "EPHEMERIS_TYPE": 0, "CLASSIFICATION_TYPE": "U", "NORAD_CAT_ID": 41556, "ELEMENT_SET_NO": 999, "REV_AT_EPOCH": 52997, "BSTAR": 0.00026925798, "MEAN_MOTION_DOT": 6.008e-05, "MEAN_MOTION_DDOT": 0}, "tle": {"line1": "1 41556U 16033A   25348.95662179  .00006008  00000+0  26926-3 0  9992", "line2": "2 41556  97.4045  63.0877 0012606 240.4707 119.5273 15.21538898529972"}}, "geometry": {"type": "Point", "coordinates": [-140.317536237073, -72.41582082851572]}}, {"type": "Feature", "properties": {"norad_id": 41599, "name": "CARTOSAT-2C", "group": "resource", "lat": 6.145434276129517, "lon": -132.1776153927131, "alt_km": 513.6402103009659, "timestamp": "2025-12-15T19:00:45.003615+00:00", "meta": {"OBJECT_NAME": "CARTOSAT-2C", "OBJECT_ID": "2016-040A", "EPOCH": "2025-12-14T23:17:00.719808", "MEAN_MOTION": 15.1932254, "ECCENTRICITY": 0.0010696, "INCLINATION": 97.4768, "RA_OF_ASC_NODE": 46.1984, "ARG_OF_PERICENTER": 57.8849, "MEAN_ANOMALY": 302.3422, "EPHEMERIS_TYPE": 0, "CLASSIFICATION_TYPE": "U", "NORAD_CAT_ID": 41599, "ELEMENT_SET_NO": 999, "REV_AT_EPOCH": 52574, "BSTAR": 0.00023002466, "MEAN_MOTION_DOT": 4.796e-05, "MEAN_MOTION_DDOT": 0}, "tle": {"line1": "1 41599U 16040A   25348.97014722  .00004796  00000+0  23002-3 0  9998", "line2": "2 41599  97.4768  46.1984 0010696  57.8849 302.3422 15.19322540525747"}}, "geometry": {"type": "Point", "coordinates": [-132.1776153927131, 6.145434276129517]}}, {"type": "Feature", "properties": {"norad_id": 41601, "name": "SKYSAT-C1", "group": "resource", "lat": 14.435215614711296, "lon": 24.826187475893047, "alt_km": 467.50299713273216, "timestamp": "2025-12-15T19:00:45.003626+00:00", "meta": {"OBJECT_NAME": "SKYSAT-C1", "OBJECT_ID": "2016-040C", "EPOCH": "2025-12-14T16:18:40.235904", "MEAN_MOTION": 15.32632863, "ECCENTRICITY": 0.0002153, "INCLINATION": 96.9829, "RA_OF_ASC_NODE": 25.5841, "ARG_OF_PERICENTER": 9.8145, "MEAN_ANOMALY": 350.314, "EPHEMERIS_TYPE": 0, "CLASSIFICATION_TYPE": "U", "NORAD_CAT_ID": 41601, "ELEMENT_SET_NO": 999, "REV_AT_EPOCH": 52957, "BSTAR": 0.00025860822, "MEAN_MOTION_DOT": 8.078e-05, "MEAN_MOTION_DDOT": 0}, "tle": {"line1": "1 41601U 16040C   25348.67963236  .00008078  00000+0  25861-3 0  9994", "line2": "2 41601  96.9829  25.5841 0002153   9.8145 350.3140 15.32632863529573"}}, "geometry": {"type": "Point", "coordinates": [24.826187475893047, 14.435215614711296]}}, {"type": "Feature", "properties": {"norad_id": 41603, "name": "LAPAN-A3", "group": "resource", "lat": 32.77737491357506, "lon": 171.86931292697523, "alt_km": 475.65684178014726, "timestamp": "2025-12-15T19:00:45.003636+00:00", "meta": {"OBJECT_NAME": "LAPAN-A3", "OBJECT_ID": "2016-040E", "EPOCH": "2025-12-14T23:33:24.410592", "MEAN_MOTION": 15.3157213, "ECCENTRICITY": 0.00094162, "INCLINATION": 97.1428, "RA_OF_ASC_NODE": 346.4565, "ARG_OF_PERICENTER": 325.1375, "MEAN_ANOMALY": 34.925, "EPHEMERIS_TYPE": 0, "CLASSIFICATION_TYPE": "U", "NORAD_CAT_ID": 41603, "ELEMENT_SET_NO": 999, "REV_AT_EPOCH": 52660, "BSTAR": 0.00011650717, "MEAN_MOTION_DOT": 3.482e-05, "MEAN_MOTION_DDOT": 0}, "tle": {"line1": "1 41603U 16040E   25348.98153253  .00003482  00000+0  11651-3 0  9996", "line2": "2 41603  97.1428 346.4565 0009416 325.1375  34.9250 15.31572130526606"}}, "geometry": {"type": "Point", "coordinates": [171.86931292697523, 32.77737491357506]}}, {"type": "Feature", "properties": {"norad_id": 41604, "name": "BIROS", "group": "resource", "lat": -73.59392779740385, "lon": 176.4253079717446, "alt_km": 307.9973120058612, "timestamp": "2025-12-15T19:00:45.003647+00:00", "meta": {"OBJECT_NAME": "BIROS", "OBJECT_ID": "2016-040F", "EPOCH": "2025-12-14T14:46:02.605152", "MEAN_MOTION": 15.90518586, "ECCENTRICITY": 0.00036384, "INCLINATION": 97.0681, "RA_OF_ASC_NODE": 20.1243, "ARG_OF_PERICENTER": 144.5694, "MEAN_ANOMALY": 215.5822, "EPHEMERIS_TYPE": 0, "CLASSIFICATION_TYPE": "U", "NORAD_CAT_ID": 41604, "ELEMENT_SET_NO": 999, "REV_AT_EPOCH": 52902, "BSTAR": 0.00057801768, "MEAN_MOTION_DOT": 0.00175866, "MEAN_MOTION_DDOT": 1.3188834e-05}, "tle": {"line1": "1 41604U 16040F   25348.61530793  .00175866  13189-4  57802-3 0  9996", "line2": "2 41604  97.0681  20.1243 0003638 144.5694 215.5822 15.90518586529024"}}, "geometry": {"type": "Point", "coordinates": [176.4253079717446, -73.59392779740385]}}, {"type": "Feature", "properties": {"norad_id": 41727, "name": "GAOFEN-3", "group": "resource", "lat": 23.592851496940817, "lon": -8.369881159462372, "alt_km": 749.8444575159692, "timestamp": "2025-12-15T19:00:45.003657+00:00", "meta": {"OBJECT_NAME": "GAOFEN-3", "OBJECT_ID": "2016-049A", "EPOCH": "2025-12-14T22:55:16.764096", "MEAN_MOTION": 14.42214307, "ECCENTRICITY": 0.0001375, "INCLINATION": 98.4044, "RA_OF_ASC_NODE": 354.5078, "ARG_OF_PERICENTER": 60.4849, "MEAN_ANOMALY": 299.6477, "EPHEMERIS_TYPE": 0, "CLASSIFICATION_TYPE": "U", "NORAD_CAT_ID": 41727, "ELEMENT_SET_NO": 999, "REV_AT_EPOCH": 49209, "BSTAR": 4.0991849e-05, "MEAN_MOTION_DOT": 9.2e-07, "MEAN_MOTION_DDOT": 0}, "tle": {"line1": "1 41727U 16049A   25348.95505514  .00000092  00000+0  40992-4 0  9995", "line2": "2 41727  98.4044 354.5078 0001375  60.4849 299.6477 14.42214307492097"}}, "geometry": {"type": "Point", "coordinates": [-8.369881159462372, 23.592851496940817]}}, {"type": "Feature", "properties": {"norad_id": 41771, "name": "SKYSAT-C4", "group": "resource", "lat": 55.34156535247381, "lon": 4.687349608213679, "alt_km": 433.6727497898737, "timestamp": "2025-12-15T19:00:45.003683+00:00", "meta": {"OBJECT_NAME": "SKYSAT-C4", "OBJECT_ID": "2016-058B", "EPOCH": "2025-12-14T14:44:33.623520", "MEAN_MOTION": 15.42314327, "ECCENTRICITY": 0.00017288, "INCLINATION": 96.9378, "RA_OF_ASC_NODE": 13.7108, "ARG_OF_PERICENTER": 134.7508, "MEAN_ANOMALY": 225.3881, "EPHEMERIS_TYPE": 0, "CLASSIFICATION_TYPE": "U", "NORAD_CAT_ID": 41771, "ELEMENT_SET_NO": 999, "REV_AT_EPOCH": 51696, "BSTAR": 0.00030601812, "MEAN_MOTION_DOT": 0.00013108, "MEAN_MOTION_DDOT": 0}, "tle": {"line1": "1 41771U 16058B   25348.61427805  .00013108  00000+0  30602-3 0  9991", "line2": "2 41771  96.9378  13.7108 0001728 134.7508 225.3881 15.42314327516968"}}, "geometry": {"type": "Point", "coordinates": [4.687349608213679, 55.34156535247381]}}, {"type": "Feature", "properties": {"norad_id": 41772, "name": "SKYSAT-C5", "group": "resource", "lat": -63.38089059089191, "lon": -160.93340922532056, "alt_km": 468.64753667967034, "timestamp": "2025-12-15T19:00:45.003697+00:00", "meta": {"OBJECT_NAME": "SKYSAT-C5", "OBJECT_ID": "2016-058C", "EPOCH": "2025-12-14T09:05:09.218688", "MEAN_MOTION": 15.34508892, "ECCENTRICITY": 0.00017065, "INCLINATION": 97.0767, "RA_OF_ASC_NODE": 32.0626, "ARG_OF_PERICENTER": 208.1694, "MEAN_ANOMALY": 151.9458, "EPHEMERIS_TYPE": 0, "CLASSIFICATION_TYPE": "U", "NORAD_CAT_ID": 41772, "ELEMENT_SET_NO": 999, "REV_AT_EPOCH": 51541, "BSTAR": 0.00031915043, "MEAN_MOTION_DOT": 0.00010597, "MEAN_MOTION_DDOT": 0}, "tle": {"line1": "1 41772U 16058C   25348.37857892  .00010597  00000+0  31915-3 0  9995", "line2": "2 41772  97.0767  32.0626 0001706 208.1694 151.9458 15.34508892515416"}}, "geometry": {"type": "Point", "coordinates": [-160.93340922532056, -63.38089059089191]}}, {"type": "Feature", "properties": {"norad_id": 41773, "name": "SKYSAT-C2", "group": "resource", "lat": -72.59910976362741, "lon": 37.402727323771096, "alt_km": 461.786092381195, "timestamp": "2025-12-15T19:00:45.003708+00:00", "meta": {"OBJECT_NAME": "SKYSAT-C2", "OBJECT_ID": "2016-058D", "EPOCH": "2025-12-14T19:54:05.745024", "MEAN_MOTION": 15.37324825, "ECCENTRICITY": 0.00040233, "INCLINATION": 97.0368, "RA_OF_ASC_NODE": 13.2677, "ARG_OF_PERICENTER": 29.5466, "MEAN_ANOMALY": 330.6007, "EPHEMERIS_TYPE": 0, "CLASSIFICATION_TYPE": "U", "NORAD_CAT_ID": 41773, "ELEMENT_SET_NO": 999, "REV_AT_EPOCH": 51668, "BSTAR": 0.0002503567, "MEAN_MOTION_DOT": 9.083e-05, "MEAN_MOTION_DDOT": 0}, "tle": {"line1": "1 41773U 16058D   25348.82923316  .00009083  00000+0  25036-3 0  9996", "line2": "2 41773  97.0368  13.2677 0004023  29.5466 330.6007 15.37324825516689"}}, "geometry": {"type": "Point", "coordinates": [37.402727323771096, -72.59910976362741]}}]}